{"type":"FeatureCollection","features":[{"type":"Feature","properties":{"name":"Phil's service area","source":"Phil's hand-drawn outline, 2026-09-11"},"geometry":{"type":"Polygon","coordinates":[[[-83.85,39.845],[-83.8514,39.8583],[-83.8554,39.8713],[-83.862,39.8836],[-83.871,39.895],[-83.8822,39.9051],[-83.8953,39.9138],[-83.9101,39.9207],[-83.926,39.9258],[-83.9428,39.929],[-83.96,39.93],[-84.71,39.93],[-84.7272,39.929],[-84.744,39.9258],[-84.7599,39.9207],[-84.7747,39.9138],[-84.7878,39.9051],[-84.799,39.895],[-84.808,39.8836],[-84.8146,39.8713],[-84.8186,39.8583],[-84.82,39.845],[-84.82,39.345],[-84.8186,39.3317],[-84.8146,39.3187],[-84.808,39.3064],[-84.799,39.295],[-84.7878,39.2849],[-84.7747,39.2762],[-84.7599,39.2693],[-84.744,39.2642],[-84.7272,39.261],[-84.71,39.26],[-83.96,39.26],[-83.9428,39.261],[-83.926,39.2642],[-83.9101,39.2693],[-83.8953,39.2762],[-83.8822,39.2849],[-83.871,39.295],[-83.862,39.3064],[-83.8554,39.3187],[-83.8514,39.3317],[-83.85,39.345],[-83.85,39.845]]]}}]}